sat03214
1 03214U 68012D   20046.47995064  .00000101  00000-0  18571-3 0  9990
2 03214  89.9427 131.2310 0186356 225.0170 271.7601 13.28505473277264
